ONEWEB-0051             
1 45155U 20008AA  23059.05324428 -.00000340  00000+0 -99521-3 0  9994
2 45155  87.8855 260.4716 0001409  93.1175 267.0115 13.11420305153910
ONEWEB-0051             
1 45155U 20008AA  23059.58732021 -.00000457  00000+0 -13254-2 0  9991
2 45155  87.8858 260.3654 0001439  93.5866 266.5426 13.11419896153201
ONEWEB-0051             
1 45155U 20008AA  23059.81621006 -.00000499  00000+0 -14433-2 0  9993
2 45155  87.8858 260.3196 0001427  93.1738 266.9553 13.11419597153239
ONEWEB-0051             
1 45155U 20008AA  23060.50287972 -.00000522  00000+0 -15098-2 0  9996
2 45155  87.8858 260.1831 0001452  93.8201 266.3093 13.11418792154109
ONEWEB-0051             
1 45155U 20008AA  23060.80806789 -.00000729  00000+0 -20923-2 0  9994
2 45155  87.8858 260.1221 0001429  93.4778 266.6513 13.11417298153368
ONEWEB-0051             
1 45155U 20008AA  23061.79992640 -.00000672  00000+0 -19319-2 0  9999
2 45155  87.8857 259.9245 0001418  93.9714 266.1576 13.11416205153497
ONEWEB-0051             
1 45155U 20008AA  23061.79992640 -.00000672  00000+0 -19319-2 0  9999
2 45155  87.8857 259.9245 0001418  93.9714 266.1576 13.11416205154274
ONEWEB-0051             
1 45155U 20008AA  23062.48659832 -.00000503  00000+0 -14564-2 0  9999
2 45155  87.8855 259.7876 0001429  94.5093 265.6198 13.11415475153584
ONEWEB-0051             
1 45155U 20008AA  23062.79178609 -.00000288  00000+0 -84712-3 0  9994
2 45155  87.8855 259.7268 0001447  94.9131 265.2162 13.11414695153621
